0 FENGYUN 1C DEB
1 30875U 99025AXM 13281.32113778  .00007460  00000-0  33620-2 0  8492
2 30875 099.0893 320.7761 0081631 177.0105 244.0011 14.20736740338829
0 FENGYUN 1C DEB
1 30875U 99025AXM 13281.89693406  .00013249  00000-0  59484-2 0  8505
2 30875 099.0895 321.3680 0081633 175.4630 308.9140 14.20747608338902
0 FENGYUN 1C DEB
1 30875U 99025AXM 13283.93878595  .00011314  00000-0  50802-2 0  8513
2 30875 099.0905 323.4674 0081623 169.9848 312.1973 14.20790276339190
0 FENGYUN 1C DEB
1 30875U 99025AXM 13285.91088198  .00009708  00000-0  43601-2 0  8529
2 30875 099.0910 325.4955 0081537 164.6329 319.0335 14.20827539339472
0 FENGYUN 1C DEB
1 30875U 99025AXM 13288.36282529  .00015494  00000-0  69349-2 0  8532
2 30875 099.0909 328.0178 0081352 158.0726 260.4582 14.20879050339826
0 FENGYUN 1C DEB
1 30875U 99025AXM 13289.92461927  .00012795  00000-0  57293-2 0  8543
2 30875 099.0905 329.6244 0081188 153.8164 329.2118 14.20913995340041
0 FENGYUN 1C DEB
1 30875U 99025AXM 13290.60485676  .00008845  00000-0  39469-2 0  8554
2 30875 099.0921 330.3230 0083789 150.4738 210.1687 14.20911252338288
0 FENGYUN 1C DEB
1 30875U 99025AXM 13292.09453034  .00010844  00000-0  48569-2 0  8555
2 30875 099.0901 331.8565 0080916 147.9195 268.8535 14.20961357340354
0 FENGYUN 1C DEB
1 30875U 99025AXM 13294.34802319  .00013418  00000-0  59989-2 0  8568
2 30875 099.0903 334.1745 0080612 141.7936 276.4122 14.21004605340677
